[{"OBJECT_NAME":"ISS OBJECT XT","OBJECT_ID":"1998-067XT","EPOCH":"2026-03-26T20:55:05.140992","MEAN_MOTION":15.75467678,"ECCENTRICITY":0.0005675,"INCLINATION":51.6252,"RA_OF_ASC_NODE":337.6103,"ARG_OF_PERICENTER":191.1501,"MEAN_ANOMALY":168.9373,"EPHEMERIS_TYPE":0,"CLASSIFICATION_TYPE":"U","NORAD_CAT_ID":66907,"ELEMENT_SET_NO":999,"REV_AT_EPOCH":1788,"BSTAR":0.0013542,"MEAN_MOTION_DOT":0.00214941,"MEAN_MOTION_DDOT":0},{"OBJECT_NAME":"ISS OBJECT XU","OBJECT_ID":"1998-067XU","EPOCH":"2026-03-26T20:50:03.785568","MEAN_MOTION":15.75695839,"ECCENTRICITY":0.0005863,"INCLINATION":51.6239,"RA_OF_ASC_NODE":337.5828,"ARG_OF_PERICENTER":190.7833,"MEAN_ANOMALY":169.3042,"EPHEMERIS_TYPE":0,"CLASSIFICATION_TYPE":"U","NORAD_CAT_ID":66908,"ELEMENT_SET_NO":999,"REV_AT_EPOCH":1788,"BSTAR":0.0013933,"MEAN_MOTION_DOT":0.00223623,"MEAN_MOTION_DDOT":0},{"OBJECT_NAME":"SILVERSAT","OBJECT_ID":"1998-067XV","EPOCH":"2026-03-26T01:39:57.278016","MEAN_MOTION":15.80138223,"ECCENTRICITY":0.00065491,"INCLINATION":51.622,"RA_OF_ASC_NODE":340.49,"ARG_OF_PERICENTER":190.6465,"MEAN_ANOMALY":169.4399,"EPHEMERIS_TYPE":0,"CLASSIFICATION_TYPE":"U","NORAD_CAT_ID":66909,"ELEMENT_SET_NO":999,"REV_AT_EPOCH":1777,"BSTAR":0.0013650058,"MEAN_MOTION_DOT":0.00268808,"MEAN_MOTION_DDOT":0},{"OBJECT_NAME":"ISS OBJECT XW","OBJECT_ID":"1998-067XW","EPOCH":"2026-03-26T21:02:51.073728","MEAN_MOTION":15.74127542,"ECCENTRICITY":0.0006051,"INCLINATION":51.6241,"RA_OF_ASC_NODE":337.639,"ARG_OF_PERICENTER":189.0578,"MEAN_ANOMALY":171.0313,"EPHEMERIS_TYPE":0,"CLASSIFICATION_TYPE":"U","NORAD_CAT_ID":66910,"ELEMENT_SET_NO":999,"REV_AT_EPOCH":1788,"BSTAR":0.001218,"MEAN_MOTION_DOT":0.00181611,"MEAN_MOTION_DDOT":0},{"OBJECT_NAME":"ISS OBJECT XX","OBJECT_ID":"1998-067XX","EPOCH":"2026-03-26T17:09:23.351904","MEAN_MOTION":15.86514955,"ECCENTRICITY":0.0008259,"INCLINATION":51.6193,"RA_OF_ASC_NODE":335.7654,"ARG_OF_PERICENTER":198.9784,"MEAN_ANOMALY":161.0914,"EPHEMERIS_TYPE":0,"CLASSIFICATION_TYPE":"U","NORAD_CAT_ID":66911,"ELEMENT_SET_NO":999,"REV_AT_EPOCH":1788,"BSTAR":0.0016302,"MEAN_MOTION_DOT":0.00443188,"MEAN_MOTION_DDOT":0},{"OBJECT_NAME":"ISS OBJECT XY","OBJECT_ID":"1998-067XY","EPOCH":"2026-03-26T21:10:08.088384","MEAN_MOTION":15.67153552,"ECCENTRICITY":0.000413,"INCLINATION":51.6272,"RA_OF_ASC_NODE":339.9521,"ARG_OF_PERICENTER":188.6075,"MEAN_ANOMALY":171.4851,"EPHEMERIS_TYPE":0,"CLASSIFICATION_TYPE":"U","NORAD_CAT_ID":66912,"ELEMENT_SET_NO":999,"REV_AT_EPOCH":1784,"BSTAR":0.00099497,"MEAN_MOTION_DOT":0.00109627,"MEAN_MOTION_DDOT":0},{"OBJECT_NAME":"KNACKSAT-2","OBJECT_ID":"1998-067XZ","EPOCH":"2026-03-26T17:17:59.228160","MEAN_MOTION":15.53223172,"ECCENTRICITY":0.0009918,"INCLINATION":51.6325,"RA_OF_ASC_NODE":347.1373,"ARG_OF_PERICENTER":247.5502,"MEAN_ANOMALY":112.4438,"EPHEMERIS_TYPE":0,"CLASSIFICATION_TYPE":"U","NORAD_CAT_ID":67683,"ELEMENT_SET_NO":999,"REV_AT_EPOCH":743,"BSTAR":0.00060216,"MEAN_MOTION_DOT":0.00038352,"MEAN_MOTION_DDOT":0},{"OBJECT_NAME":"CORAL","OBJECT_ID":"1998-067YA","EPOCH":"2026-03-26T00:24:02.134368","MEAN_MOTION":15.57054021,"ECCENTRICITY":0.00124562,"INCLINATION":51.6305,"RA_OF_ASC_NODE":349.9356,"ARG_OF_PERICENTER":234.065,"MEAN_ANOMALY":125.9187,"EPHEMERIS_TYPE":0,"CLASSIFICATION_TYPE":"U","NORAD_CAT_ID":67684,"ELEMENT_SET_NO":999,"REV_AT_EPOCH":733,"BSTAR":0.001052792,"MEAN_MOTION_DOT":0.00078154,"MEAN_MOTION_DDOT":0},{"OBJECT_NAME":"GXIBA-1","OBJECT_ID":"1998-067YB","EPOCH":"2026-03-26T10:54:09.447264","MEAN_MOTION":15.53722996,"ECCENTRICITY":0.0011846,"INCLINATION":51.6322,"RA_OF_ASC_NODE":348.3572,"ARG_OF_PERICENTER":243.4143,"MEAN_ANOMALY":116.5634,"EPHEMERIS_TYPE":0,"CLASSIFICATION_TYPE":"U","NORAD_CAT_ID":67685,"ELEMENT_SET_NO":999,"REV_AT_EPOCH":739,"BSTAR":0.00065257,"MEAN_MOTION_DOT":0.0004243,"MEAN_MOTION_DDOT":0},{"OBJECT_NAME":"UITMSAT-2","OBJECT_ID":"1998-067YC","EPOCH":"2026-03-26T10:35:08.641536","MEAN_MOTION":15.54615006,"ECCENTRICITY":0.0008857,"INCLINATION":51.633,"RA_OF_ASC_NODE":348.2726,"ARG_OF_PERICENTER":214.4638,"MEAN_ANOMALY":145.5779,"EPHEMERIS_TYPE":0,"CLASSIFICATION_TYPE":"U","NORAD_CAT_ID":67686,"ELEMENT_SET_NO":999,"REV_AT_EPOCH":739,"BSTAR":0.00077644,"MEAN_MOTION_DOT":0.00052259,"MEAN_MOTION_DDOT":0},{"OBJECT_NAME":"HMU-SAT2","OBJECT_ID":"1998-067YD","EPOCH":"2026-03-26T00:12:15.223392","MEAN_MOTION":15.53428839,"ECCENTRICITY":0.00084745,"INCLINATION":51.6326,"RA_OF_ASC_NODE":350.6331,"ARG_OF_PERICENTER":215.7508,"MEAN_ANOMALY":144.2916,"EPHEMERIS_TYPE":0,"CLASSIFICATION_TYPE":"U","NORAD_CAT_ID":67687,"ELEMENT_SET_NO":999,"REV_AT_EPOCH":724,"BSTAR":0.00063411311,"MEAN_MOTION_DOT":0.00040708,"MEAN_MOTION_DDOT":0},{"OBJECT_NAME":"LEOPARD","OBJECT_ID":"1998-067YE","EPOCH":"2026-03-26T10:43:49.072800","MEAN_MOTION":15.54208821,"ECCENTRICITY":0.0008628,"INCLINATION":51.633,"RA_OF_ASC_NODE":348.3116,"ARG_OF_PERICENTER":214.7699,"MEAN_ANOMALY":145.2729,"EPHEMERIS_TYPE":0,"CLASSIFICATION_TYPE":"U","NORAD_CAT_ID":67688,"ELEMENT_SET_NO":999,"REV_AT_EPOCH":731,"BSTAR":0.00072108,"MEAN_MOTION_DOT":0.00047747,"MEAN_MOTION_DDOT":0},{"OBJECT_NAME":"CREW DRAGON 12","OBJECT_ID":"2026-031A","EPOCH":"2026-03-26T19:25:42.681792","MEAN_MOTION":15.48566257,"ECCENTRICITY":0.0006206,"INCLINATION":51.6341,"RA_OF_ASC_NODE":347.7277,"ARG_OF_PERICENTER":236.0994,"MEAN_ANOMALY":123.9405,"EPHEMERIS_TYPE":0,"CLASSIFICATION_TYPE":"U","NORAD_CAT_ID":67796,"ELEMENT_SET_NO":999,"REV_AT_EPOCH":55892,"BSTAR":0.00024531,"MEAN_MOTION_DOT":0.0001289,"MEAN_MOTION_DDOT":0},{"OBJECT_NAME":"PROGRESS-MS 33","OBJECT_ID":"2026-058A","EPOCH":"2026-03-26T19:25:42.681792","MEAN_MOTION":15.48566257,"ECCENTRICITY":0.0006206,"INCLINATION":51.6341,"RA_OF_ASC_NODE":347.7277,"ARG_OF_PERICENTER":236.0994,"MEAN_ANOMALY":123.9405,"EPHEMERIS_TYPE":0,"CLASSIFICATION_TYPE":"U","NORAD_CAT_ID":68319,"ELEMENT_SET_NO":999,"REV_AT_EPOCH":43,"BSTAR":0.00024531,"MEAN_MOTION_DOT":0.0001289,"MEAN_MOTION_DDOT":0}]
